SHIJIAN-16 (SJ-16)      
1 39358U 13057A   25337.54976322  .00001876  00000+0  18765-3 0  9993
2 39358  74.9736   7.0425 0017358 341.4726  18.5828 14.91948980657165
SL-4 R/B                
1 39679U 14021B   25337.51022330  .00019126  00000+0  45499-3 0  9990
2 39679  51.6074  85.4364 0102583 113.0130 248.1711 15.36308154641479
ALOS-2                  
1 39766U 14029A   25337.54489948  .00003053  00000+0  41575-3 0  9993
2 39766  97.9237  72.5221 0001522 108.6147 251.5230 14.79450558622653
YAOGAN-29               
1 41038U 15069A   25337.50770134  .00000791  00000+0  10437-3 0  9998
2 41038  98.0228   0.6494 0000753   7.0227 353.0996 14.82865956541620
ASTRO-H (HITOMI)        
1 41337U 16012A   25337.49766972  .00005082  00000+0  30552-3 0  9990
2 41337  31.0001 256.9504 0009476  84.7657 275.4062 15.09257809537680
HXMT (HUIYAN)           
1 42758U 17034A   25337.50193153  .00006809  00000+0  35408-3 0  9993
2 42758  43.0126 190.8883 0032851 344.3805  15.6027 15.16128088467937
CZ-2C R/B               
1 43521U 18054D   25337.15080250  .00116887  00000+0  85487-3 0  9999
2 43521  35.1341 245.8114 0017526  42.6186 317.5903 15.71657055413544
SAOCOM 1A               
1 43641U 18076A   25337.49046703  .00000816  00000+0  10901-3 0  9991
2 43641  97.8855 162.0474 0001563  86.4546 273.6846 14.82161160387110
H-2A R/B                
1 43682U 18084L   25337.51380595  .00024833  00000+0  68167-3 0  9990
2 43682  98.8775 169.6839 0028134 358.1880   1.9253 15.36859150390984
SAOCOM 1B               
1 46265U 20059A   25337.52169811  .00001629  00000+0  21119-3 0  9996
2 46265  97.8842 161.1792 0001271  86.5633 273.5725 14.82144632284507
CSS (TIANHE)            
1 48274U 21035A   25337.48928676  .00026021  00000+0  33258-3 0  9990
2 48274  41.4677  72.8422 0010079 320.5330  39.4773 15.58585466262583
COSMOS 2550             
1 48865U 21056A   25337.53178289 -.00000132  00000+0  18151-5 0  9995
2 48865  67.1456 331.7863 0008370 270.2716  89.7479 15.33827700248718
