CCSDS_OMM_VERS = 2.0
CREATION_DATE  = 
ORIGINATOR     = 

OBJECT_NAME    = SHIJIAN-16 (SJ-16)
OBJECT_ID      = 2013-057A
CENTER_NAME    = EARTH
REF_FRAME      = TEME
TIME_SYSTEM    = UTC
MEAN_ELEMENT_THEORY = SGP/SGP4

EPOCH          = 2025-12-03T13:11:39.542208
MEAN_MOTION    = 14.91948980
ECCENTRICITY   = .0017358
INCLINATION    = 74.9736
RA_OF_ASC_NODE = 7.0425
ARG_OF_PERICENTER = 341.4726
MEAN_ANOMALY   = 18.5828

EPHEMERIS_TYPE = 0
CLASSIFICATION_TYPE = U
NORAD_CAT_ID   = 39358
ELEMENT_SET_NO = 999
REV_AT_EPOCH   = 65716
BSTAR          = .18765E-3
MEAN_MOTION_DOT = .1876E-4
MEAN_MOTION_DDOT = 0

CCSDS_OMM_VERS = 2.0
CREATION_DATE  = 
ORIGINATOR     = 

OBJECT_NAME    = SL-4 R/B
OBJECT_ID      = 2014-021B
CENTER_NAME    = EARTH
REF_FRAME      = TEME
TIME_SYSTEM    = UTC
MEAN_ELEMENT_THEORY = SGP/SGP4

EPOCH          = 2025-12-03T12:14:43.293120
MEAN_MOTION    = 15.36308154
ECCENTRICITY   = .0102583
INCLINATION    = 51.6074
RA_OF_ASC_NODE = 85.4364
ARG_OF_PERICENTER = 113.0130
MEAN_ANOMALY   = 248.1711

EPHEMERIS_TYPE = 0
CLASSIFICATION_TYPE = U
NORAD_CAT_ID   = 39679
ELEMENT_SET_NO = 999
REV_AT_EPOCH   = 64147
BSTAR          = .45499E-3
MEAN_MOTION_DOT = .19126E-3
MEAN_MOTION_DDOT = 0

CCSDS_OMM_VERS = 2.0
CREATION_DATE  = 
ORIGINATOR     = 

OBJECT_NAME    = ALOS-2
OBJECT_ID      = 2014-029A
CENTER_NAME    = EARTH
REF_FRAME      = TEME
TIME_SYSTEM    = UTC
MEAN_ELEMENT_THEORY = SGP/SGP4

EPOCH          = 2025-12-03T13:04:39.315072
MEAN_MOTION    = 14.79450558
ECCENTRICITY   = .0001522
INCLINATION    = 97.9237
RA_OF_ASC_NODE = 72.5221
ARG_OF_PERICENTER = 108.6147
MEAN_ANOMALY   = 251.5230

EPHEMERIS_TYPE = 0
CLASSIFICATION_TYPE = U
NORAD_CAT_ID   = 39766
ELEMENT_SET_NO = 999
REV_AT_EPOCH   = 62265
BSTAR          = .41575E-3
MEAN_MOTION_DOT = .3053E-4
MEAN_MOTION_DDOT = 0

CCSDS_OMM_VERS = 2.0
CREATION_DATE  = 
ORIGINATOR     = 

OBJECT_NAME    = YAOGAN-29
OBJECT_ID      = 2015-069A
CENTER_NAME    = EARTH
REF_FRAME      = TEME
TIME_SYSTEM    = UTC
MEAN_ELEMENT_THEORY = SGP/SGP4

EPOCH          = 2025-12-03T12:11:05.395776
MEAN_MOTION    = 14.82865956
ECCENTRICITY   = .0000753
INCLINATION    = 98.0228
RA_OF_ASC_NODE = 0.6494
ARG_OF_PERICENTER = 7.0227
MEAN_ANOMALY   = 353.0996

EPHEMERIS_TYPE = 0
CLASSIFICATION_TYPE = U
NORAD_CAT_ID   = 41038
ELEMENT_SET_NO = 999
REV_AT_EPOCH   = 54162
BSTAR          = .10437E-3
MEAN_MOTION_DOT = .791E-5
MEAN_MOTION_DDOT = 0

CCSDS_OMM_VERS = 2.0
CREATION_DATE  = 
ORIGINATOR     = 

OBJECT_NAME    = ASTRO-H (HITOMI)
OBJECT_ID      = 2016-012A
CENTER_NAME    = EARTH
REF_FRAME      = TEME
TIME_SYSTEM    = UTC
MEAN_ELEMENT_THEORY = SGP/SGP4

EPOCH          = 2025-12-03T11:56:38.663808
MEAN_MOTION    = 15.09257809
ECCENTRICITY   = .0009476
INCLINATION    = 31.0001
RA_OF_ASC_NODE = 256.9504
ARG_OF_PERICENTER = 84.7657
MEAN_ANOMALY   = 275.4062

EPHEMERIS_TYPE = 0
CLASSIFICATION_TYPE = U
NORAD_CAT_ID   = 41337
ELEMENT_SET_NO = 999
REV_AT_EPOCH   = 53768
BSTAR          = .30552E-3
MEAN_MOTION_DOT = .5082E-4
MEAN_MOTION_DDOT = 0

CCSDS_OMM_VERS = 2.0
CREATION_DATE  = 
ORIGINATOR     = 

OBJECT_NAME    = HXMT (HUIYAN)
OBJECT_ID      = 2017-034A
CENTER_NAME    = EARTH
REF_FRAME      = TEME
TIME_SYSTEM    = UTC
MEAN_ELEMENT_THEORY = SGP/SGP4

EPOCH          = 2025-12-03T12:02:46.884192
MEAN_MOTION    = 15.16128088
ECCENTRICITY   = .0032851
INCLINATION    = 43.0126
RA_OF_ASC_NODE = 190.8883
ARG_OF_PERICENTER = 344.3805
MEAN_ANOMALY   = 15.6027

EPHEMERIS_TYPE = 0
CLASSIFICATION_TYPE = U
NORAD_CAT_ID   = 42758
ELEMENT_SET_NO = 999
REV_AT_EPOCH   = 46793
BSTAR          = .35408E-3
MEAN_MOTION_DOT = .6809E-4
MEAN_MOTION_DDOT = 0

CCSDS_OMM_VERS = 2.0
CREATION_DATE  = 
ORIGINATOR     = 

OBJECT_NAME    = CZ-2C R/B
OBJECT_ID      = 2018-054D
CENTER_NAME    = EARTH
REF_FRAME      = TEME
TIME_SYSTEM    = UTC
MEAN_ELEMENT_THEORY = SGP/SGP4

EPOCH          = 2025-12-03T03:37:09.336000
MEAN_MOTION    = 15.71657055
ECCENTRICITY   = .00175269
INCLINATION    = 35.1341
RA_OF_ASC_NODE = 245.8114
ARG_OF_PERICENTER = 42.6186
MEAN_ANOMALY   = 317.5903

EPHEMERIS_TYPE = 0
CLASSIFICATION_TYPE = U
NORAD_CAT_ID   = 43521
ELEMENT_SET_NO = 999
REV_AT_EPOCH   = 41354
BSTAR          = .85487E-3
MEAN_MOTION_DOT = .116887E-2
MEAN_MOTION_DDOT = 0

CCSDS_OMM_VERS = 2.0
CREATION_DATE  = 
ORIGINATOR     = 

OBJECT_NAME    = SAOCOM 1A
OBJECT_ID      = 2018-076A
CENTER_NAME    = EARTH
REF_FRAME      = TEME
TIME_SYSTEM    = UTC
MEAN_ELEMENT_THEORY = SGP/SGP4

EPOCH          = 2025-12-03T11:46:16.351392
MEAN_MOTION    = 14.82161160
ECCENTRICITY   = .0001563
INCLINATION    = 97.8855
RA_OF_ASC_NODE = 162.0474
ARG_OF_PERICENTER = 86.4546
MEAN_ANOMALY   = 273.6846

EPHEMERIS_TYPE = 0
CLASSIFICATION_TYPE = U
NORAD_CAT_ID   = 43641
ELEMENT_SET_NO = 999
REV_AT_EPOCH   = 38711
BSTAR          = .10901E-3
MEAN_MOTION_DOT = .816E-5
MEAN_MOTION_DDOT = 0

CCSDS_OMM_VERS = 2.0
CREATION_DATE  = 
ORIGINATOR     = 

OBJECT_NAME    = H-2A R/B
OBJECT_ID      = 2018-084L
CENTER_NAME    = EARTH
REF_FRAME      = TEME
TIME_SYSTEM    = UTC
MEAN_ELEMENT_THEORY = SGP/SGP4

EPOCH          = 2025-12-03T12:19:52.834080
MEAN_MOTION    = 15.36859150
ECCENTRICITY   = .0028134
INCLINATION    = 98.8775
RA_OF_ASC_NODE = 169.6839
ARG_OF_PERICENTER = 358.1880
MEAN_ANOMALY   = 1.9253

EPHEMERIS_TYPE = 0
CLASSIFICATION_TYPE = U
NORAD_CAT_ID   = 43682
ELEMENT_SET_NO = 999
REV_AT_EPOCH   = 39098
BSTAR          = .68167E-3
MEAN_MOTION_DOT = .24833E-3
MEAN_MOTION_DDOT = 0

CCSDS_OMM_VERS = 2.0
CREATION_DATE  = 
ORIGINATOR     = 

OBJECT_NAME    = SAOCOM 1B
OBJECT_ID      = 2020-059A
CENTER_NAME    = EARTH
REF_FRAME      = TEME
TIME_SYSTEM    = UTC
MEAN_ELEMENT_THEORY = SGP/SGP4

EPOCH          = 2025-12-03T12:31:14.716704
MEAN_MOTION    = 14.82144632
ECCENTRICITY   = .0001271
INCLINATION    = 97.8842
RA_OF_ASC_NODE = 161.1792
ARG_OF_PERICENTER = 86.5633
MEAN_ANOMALY   = 273.5725

EPHEMERIS_TYPE = 0
CLASSIFICATION_TYPE = U
NORAD_CAT_ID   = 46265
ELEMENT_SET_NO = 999
REV_AT_EPOCH   = 28450
BSTAR          = .21119E-3
MEAN_MOTION_DOT = .1629E-4
MEAN_MOTION_DDOT = 0

CCSDS_OMM_VERS = 2.0
CREATION_DATE  = 
ORIGINATOR     = 

OBJECT_NAME    = CSS (TIANHE)
OBJECT_ID      = 2021-035A
CENTER_NAME    = EARTH
REF_FRAME      = TEME
TIME_SYSTEM    = UTC
MEAN_ELEMENT_THEORY = SGP/SGP4

EPOCH          = 2025-12-03T11:44:34.376064
MEAN_MOTION    = 15.58585466
ECCENTRICITY   = .0010079
INCLINATION    = 41.4677
RA_OF_ASC_NODE = 72.8422
ARG_OF_PERICENTER = 320.5330
MEAN_ANOMALY   = 39.4773

EPHEMERIS_TYPE = 0
CLASSIFICATION_TYPE = U
NORAD_CAT_ID   = 48274
ELEMENT_SET_NO = 999
REV_AT_EPOCH   = 26258
BSTAR          = .33258E-3
MEAN_MOTION_DOT = .26021E-3
MEAN_MOTION_DDOT = 0

CCSDS_OMM_VERS = 2.0
CREATION_DATE  = 
ORIGINATOR     = 

OBJECT_NAME    = COSMOS 2550
OBJECT_ID      = 2021-056A
CENTER_NAME    = EARTH
REF_FRAME      = TEME
TIME_SYSTEM    = UTC
MEAN_ELEMENT_THEORY = SGP/SGP4

EPOCH          = 2025-12-03T12:45:46.041696
MEAN_MOTION    = 15.33827700
ECCENTRICITY   = .000837
INCLINATION    = 67.1456
RA_OF_ASC_NODE = 331.7863
ARG_OF_PERICENTER = 270.2716
MEAN_ANOMALY   = 89.7479

EPHEMERIS_TYPE = 0
CLASSIFICATION_TYPE = U
NORAD_CAT_ID   = 48865
ELEMENT_SET_NO = 999
REV_AT_EPOCH   = 24871
BSTAR          = .18151E-5
MEAN_MOTION_DOT = -.132E-5
MEAN_MOTION_DDOT = 0

